[{"OBJECT_NAME":"STARLINK-31732","OBJECT_ID":"2024-117J","EPOCH":"2026-03-09T04:17:54.074976","MEAN_MOTION":15.30189924,"ECCENTRICITY":0.00014165,"INCLINATION":53.1616,"RA_OF_ASC_NODE":39.1116,"ARG_OF_PERICENTER":78.7129,"MEAN_ANOMALY":281.403,"EPHEMERIS_TYPE":0,"CLASSIFICATION_TYPE":"U","NORAD_CAT_ID":60099,"ELEMENT_SET_NO":999,"REV_AT_EPOCH":9681,"BSTAR":-9.614943e-6,"MEAN_MOTION_DOT":-6.44e-6,"MEAN_MOTION_DDOT":0},{"OBJECT_NAME":"FENGYUN 1C DEB","OBJECT_ID":"1999-025ETT","EPOCH":"2026-03-07T08:30:03.670560","MEAN_MOTION":15.28888299,"ECCENTRICITY":0.00158464,"INCLINATION":99.1103,"RA_OF_ASC_NODE":112.0072,"ARG_OF_PERICENTER":201.0032,"MEAN_ANOMALY":159.0553,"EPHEMERIS_TYPE":0,"CLASSIFICATION_TYPE":"U","NORAD_CAT_ID":38726,"ELEMENT_SET_NO":999,"REV_AT_EPOCH":71135,"BSTAR":0.013792546,"MEAN_MOTION_DOT":0.00409659,"MEAN_MOTION_DDOT":0}]
